{
"type": "FeatureCollection",
"name": "zones",
"crs": { "type": "name", "properties": { "name": "urn:ogc:def:crs:OGC:1.3:CRS84" } },
"features": [
{ "type": "Feature", "properties": { "id": "1", "nom": "Burkina Faso" ,"image": "burkina/burkina_card.png"}, "geometry": { "type": "MultiPolygon", "coordinates": [ [ [ [ -1.20365521830296, 12.071800078647495 ], [ -1.203119070274772, 12.071808416311223 ], [ -1.200771474175688, 12.07084958498292 ], [ -1.200988615939639, 12.069493808359917 ], [ -1.202224765213555, 12.069474595482644 ], [ -1.202987480190774, 12.069381793660321 ], [ -1.203341287138382, 12.069439794799273 ], [ -1.203373187764805, 12.069770401291299 ], [ -1.20365521830296, 12.071800078647495 ] ] ] ] } },
{ "type": "Feature", "properties": { "id": "2", "nom": "Panama","image":"panama/panama_card.png" }, "geometry": { "type": "MultiPolygon", "coordinates": [ [ [ [ -78.520225225953197, 8.988590289789894 ], [ -78.519335640835209, 8.989714641210004 ], [ -78.519278412972326, 8.989616385371553 ], [ -78.520203919579586, 8.988535923320139 ], [ -78.520225225953197, 8.988590289789894 ] ] ] ] } }
]
}
